{
  "type": "FeatureCollection",
  "features": [
    {
      "type": "Feature",
      "properties": {
        "norad_id": 30368,
        "name": "FENGYUN 1C DEB",
        "group": "fengyun-1c-debris",
        "lat": 43.4091846084069,
        "lon": 91.52988268700399,
        "alt_km": 1037.295724106274,
        "timestamp": "2025-12-20T16:47:36.562571+00:00",
        "meta_object_name": "FENGYUN 1C DEB",
        "meta_object_id": "1999-025ACF",
        "meta_epoch": "2025-12-19T05:48:05.897088",
        "meta_mean_motion": 13.75371942,
        "meta_eccentricity": 0.0186176,
        "meta_inclination": 99.1886,
        "meta_ra_of_asc_node": 98.9318,
        "meta_arg_of_pericenter": 290.8052,
        "meta_mean_anomaly": 96.3005,
        "meta_ephemeris_type": 0,
        "meta_classification_type": "U",
        "meta_norad_cat_id": 30368,
        "meta_element_set_no": 999,
        "meta_rev_at_epoch": 94751,
        "meta_bstar": 0.00041325,
        "meta_mean_motion_dot": 4.06e-06,
        "meta_mean_motion_ddot": 0,
        "tle_line1": "1 30368U 99025ACF 25353.24173492  .00000406  00000+0  41325-3 0  9992",
        "tle_line2": "2 30368  99.1886  98.9318 0186176 290.8052  96.3005 13.75371942947517"
      },
      "geometry": {
        "type": "Point",
        "coordinates": [
          91.52988268700399,
          43.4091846084069
        ]
      }
    },
    {
      "type": "Feature",
      "properties": {
        "norad_id": 30369,
        "name": "FENGYUN 1C DEB",
        "group": "fengyun-1c-debris",
        "lat": -67.82594201306617,
        "lon": 149.7133995889633,
        "alt_km": 842.2454833228157,
        "timestamp": "2025-12-20T16:47:36.562581+00:00",
        "meta_object_name": "FENGYUN 1C DEB",
        "meta_object_id": "1999-025ACG",
        "meta_epoch": "2025-12-19T18:23:09.096000",
        "meta_mean_motion": 14.12062456,
        "meta_eccentricity": 0.00995332,
        "meta_inclination": 98.7213,
        "meta_ra_of_asc_node": 350.93,
        "meta_arg_of_pericenter": 175.497,
        "meta_mean_anomaly": 9.3927,
        "meta_ephemeris_type": 0,
        "meta_classification_type": "U",
        "meta_norad_cat_id": 30369,
        "meta_element_set_no": 999,
        "meta_rev_at_epoch": 97345,
        "meta_bstar": 0.00014871538,
        "meta_mean_motion_dot": 2.43e-06,
        "meta_mean_motion_ddot": 0,
        "tle_line1": "1 30369U 99025ACG 25353.76607750  .00000243  00000+0  14872-3 0  9995",
        "tle_line2": "2 30369  98.7213 350.9300 0099533 175.4970   9.3927 14.12062456973454"
      },
      "geometry": {
        "type": "Point",
        "coordinates": [
          149.7133995889633,
          -67.82594201306617
        ]
      }
    },
    {
      "type": "Feature",
      "properties": {
        "norad_id": 30370,
        "name": "FENGYUN 1C DEB",
        "group": "fengyun-1c-debris",
        "lat": 17.651768571515497,
        "lon": 47.91415571765292,
        "alt_km": 819.7095226752299,
        "timestamp": "2025-12-20T16:47:36.562591+00:00",
        "meta_object_name": "FENGYUN 1C DEB",
        "meta_object_id": "1999-025ACH",
        "meta_epoch": "2025-12-20T03:18:02.732832",
        "meta_mean_motion": 14.19185972,
        "meta_eccentricity": 0.00994585,
        "meta_inclination": 99.0562,
        "meta_ra_of_asc_node": 50.2489,
        "meta_arg_of_pericenter": 296.0308,
        "meta_mean_anomaly": 90.123,
        "meta_ephemeris_type": 0,
        "meta_classification_type": "U",
        "meta_norad_cat_id": 30370,
        "meta_element_set_no": 999,
        "meta_rev_at_epoch": 97199,
        "meta_bstar": 0.00085009753,
        "meta_mean_motion_dot": 1.823e-05,
        "meta_mean_motion_ddot": 0,
        "tle_line1": "1 30370U 99025ACH 25354.13753163  .00001823  00000+0  85010-3 0  9996",
        "tle_line2": "2 30370  99.0562  50.2489 0099458 296.0308  90.1230 14.19185972971994"
      },
      "geometry": {
        "type": "Point",
        "coordinates": [
          47.91415571765292,
          17.651768571515497
        ]
      }
    },
    {
      "type": "Feature",
      "properties": {
        "norad_id": 30371,
        "name": "FENGYUN 1C DEB",
        "group": "fengyun-1c-debris",
        "lat": -8.95819051327441,
        "lon": 38.94957601947491,
        "alt_km": 791.1479465486227,
        "timestamp": "2025-12-20T16:47:36.562601+00:00",
        "meta_object_name": "FENGYUN 1C DEB",
        "meta_object_id": "1999-025ACJ",
        "meta_epoch": "2025-12-20T02:01:03.794880",
        "meta_mean_motion": 14.302679,
        "meta_eccentricity": 0.00068526,
        "meta_inclination": 98.5751,
        "meta_ra_of_asc_node": 36.98,
        "meta_arg_of_pericenter": 311.7552,
        "meta_mean_anomaly": 111.0632,
        "meta_ephemeris_type": 0,
        "meta_classification_type": "U",
        "meta_norad_cat_id": 30371,
        "meta_element_set_no": 999,
        "meta_rev_at_epoch": 98008,
        "meta_bstar": 0.00073025737,
        "meta_mean_motion_dot": 1.851e-05,
        "meta_mean_motion_ddot": 0,
        "tle_line1": "1 30371U 99025ACJ 25354.08407170  .00001851  00000+0  73026-3 0  9990",
        "tle_line2": "2 30371  98.5751  36.9800 0006852 311.7552 111.0632 14.30267900980083"
      },
      "geometry": {
        "type": "Point",
        "coordinates": [
          38.94957601947491,
          -8.95819051327441
        ]
      }
    },
    {
      "type": "Feature",
      "properties": {
        "norad_id": 30374,
        "name": "FENGYUN 1C DEB",
        "group": "fengyun-1c-debris",
        "lat": -65.61897323377761,
        "lon": 18.06129205702887,
        "alt_km": 702.4965851770457,
        "timestamp": "2025-12-20T16:47:36.562611+00:00",
        "meta_object_name": "FENGYUN 1C DEB",
        "meta_object_id": "1999-025ACM",
        "meta_epoch": "2025-12-20T03:12:46.567584",
        "meta_mean_motion": 14.61374921,
        "meta_eccentricity": 0.00395257,
        "meta_inclination": 99.2726,
        "meta_ra_of_asc_node": 218.5569,
        "meta_arg_of_pericenter": 145.1568,
        "meta_mean_anomaly": 6.4715,
        "meta_ephemeris_type": 0,
        "meta_classification_type": "U",
        "meta_norad_cat_id": 30374,
        "meta_element_set_no": 999,
        "meta_rev_at_epoch": 99030,
        "meta_bstar": 0.00091281599,
        "meta_mean_motion_dot": 4.507e-05,
        "meta_mean_motion_ddot": 0,
        "tle_line1": "1 30374U 99025ACM 25354.13387231  .00004507  00000+0  91282-3 0  9999",
        "tle_line2": "2 30374  99.2726 218.5569 0039525 145.1568   6.4715 14.61374921990306"
      },
      "geometry": {
        "type": "Point",
        "coordinates": [
          18.06129205702887,
          -65.61897323377761
        ]
      }
    },
    {
      "type": "Feature",
      "properties": {
        "norad_id": 30377,
        "name": "FENGYUN 1C DEB",
        "group": "fengyun-1c-debris",
        "lat": 64.09447783442286,
        "lon": -4.843784793474965,
        "alt_km": 976.1577719360575,
        "timestamp": "2025-12-20T16:47:36.562622+00:00",
        "meta_object_name": "FENGYUN 1C DEB",
        "meta_object_id": "1999-025ACQ",
        "meta_epoch": "2025-12-20T01:23:23.194176",
        "meta_mean_motion": 13.99178424,
        "meta_eccentricity": 0.0117962,
        "meta_inclination": 98.8926,
        "meta_ra_of_asc_node": 13.338,
        "meta_arg_of_pericenter": 246.2605,
        "meta_mean_anomaly": 188.2753,
        "meta_ephemeris_type": 0,
        "meta_classification_type": "U",
        "meta_norad_cat_id": 30377,
        "meta_element_set_no": 999,
        "meta_rev_at_epoch": 96309,
        "meta_bstar": 0.00029608654,
        "meta_mean_motion_dot": 4.12e-06,
        "meta_mean_motion_ddot": 0,
        "tle_line1": "1 30377U 99025ACQ 25354.05790734  .00000412  00000+0  29609-3 0  9994",
        "tle_line2": "2 30377  98.8926  13.3380 0117962 246.2605 188.2753 13.99178424963092"
      },
      "geometry": {
        "type": "Point",
        "coordinates": [
          -4.843784793474965,
          64.09447783442286
        ]
      }
    },
    {
      "type": "Feature",
      "properties": {
        "norad_id": 30379,
        "name": "FENGYUN 1C DEB",
        "group": "fengyun-1c-debris",
        "lat": 74.46156057592172,
        "lon": -24.465387343768814,
        "alt_km": 884.6995151964311,
        "timestamp": "2025-12-20T16:47:36.562632+00:00",
        "meta_object_name": "FENGYUN 1C DEB",
        "meta_object_id": "1999-025ACS",
        "meta_epoch": "2025-12-19T23:39:56.028096",
        "meta_mean_motion": 14.08041957,
        "meta_eccentricity": 0.0035545,
        "meta_inclination": 98.7578,
        "meta_ra_of_asc_node": 8.5121,
        "meta_arg_of_pericenter": 258.2122,
        "meta_mean_anomaly": 163.4217,
        "meta_ephemeris_type": 0,
        "meta_classification_type": "U",
        "meta_norad_cat_id": 30379,
        "meta_element_set_no": 999,
        "meta_rev_at_epoch": 96919,
        "meta_bstar": 0.00032017,
        "meta_mean_motion_dot": 5.05e-06,
        "meta_mean_motion_ddot": 0,
        "tle_line1": "1 30379U 99025ACS 25353.98606514  .00000505  00000+0  32017-3 0  9999",
        "tle_line2": "2 30379  98.7578   8.5121 0035545 258.2122 163.4217 14.08041957969196"
      },
      "geometry": {
        "type": "Point",
        "coordinates": [
          -24.465387343768814,
          74.46156057592172
        ]
      }
    }
  ]
}